STARLINK-32186          
1 60412U 24141Q   26068.72544482 -.00000563  00000+0 -68833-5 0  9991
2 60412  53.1601 242.5968 0001118  84.5128 275.6000 15.30187064 89525
YAM-7                   
1 60504U 24149AN  26068.71799904  .00009009  00000+0  30984-3 0  9997
2 60504  97.3828 149.4631 0001973 296.5121  63.5918 15.30304554 86835
